INMARSAT 5-F3
1 40882U 15042A   26119.23903013  .00000000  00000+0  00000+0 0  9992
2 40882   0.0134 252.0133 0001151 139.8155  91.0012  1.00268670 39081
